ONEWEB-0430             
1 50501U 21132AJ  25273.29835040  .00000089  00000+0  19182-3 0  9990
2 50501  87.9215  27.0634 0001846 108.3094 251.8239 13.18685629187376
ONEWEB-0432             
1 50502U 21132AK  25272.79863831  .00000198  00000+0  46998-3 0  9990
2 50502  87.9208  27.1388 0002634  98.0323 262.1108 13.18691541187260
ONEWEB-0440             
1 50503U 21132AL  25272.86287837  .00000101  00000+0  22357-3 0  9992
2 50503  87.9219  27.1394 0001285  91.9041 268.2239 13.18687165187269
ONEWEB-0450             
1 50504U 21132AM  25273.08403410  .00000103  00000+0  22910-3 0  9992
2 50504  87.9215  27.1202 0001600 110.5264 249.6041 13.18689197187328
ONEWEB-0410             
1 51622U 22012A   25272.83216688  .00000087  00000+0  19156-3 0  9992
2 51622  87.9077  57.6187 0002755  69.4650 290.6777 13.17648666179417
ONEWEB-0411             
1 51623U 22012B   25273.01572794  .00000801  00000+0  22569-2 0  9992
2 51623  87.8740  88.1432 0001844 106.6701 253.4629 13.10373899175218
ONEWEB-0415             
1 51624U 22012C   25273.01240575  .00000731  00000+0  20578-2 0  9992
2 51624  87.8737  88.1459 0001759  98.3241 261.8085 13.10374417175211
ONEWEB-0416             
1 51625U 22012D   25273.02402353  .00000583  00000+0  16339-2 0  9993
2 51625  87.8737  88.1636 0001693  87.9829 272.1493 13.10372325175250
ONEWEB-0422             
1 51626U 22012E   25272.84228287  .00000163  00000+0  38552-3 0  9991
2 51626  87.9077  57.6220 0000975 108.7237 251.4001 13.17648919179527
ONEWEB-0423             
1 51627U 22012F   25272.91147051  .00000093  00000+0  20607-3 0  9993
2 51627  87.9077  57.6175 0001569  93.4319 266.6992 13.17648099179423
ONEWEB-0425             
1 51628U 22012G   25273.03397860  .00000133  00000+0  34417-3 0  9992
2 51628  87.8735  88.1309 0001789  78.9807 281.1522 13.10370617175255
ONEWEB-0428             
1 51629U 22012H   25273.01406636  .00000735  00000+0  20686-2 0  9993
2 51629  87.8738  88.1564 0001473  91.3689 268.7607 13.10374171175219
ONEWEB-0431             
1 51630U 22012J   25273.21309975 -.00000576  00000+0 -16861-2 0  9990
2 51630  87.8749  88.0905 0001747 112.3006 247.8307 13.10372874175293
ONEWEB-0434             
1 51631U 22012K   25272.88458086  .00000044  00000+0  89817-4 0  9992
2 51631  87.8738  88.1966 0001919  66.8792 293.2537 13.10370405175238
ONEWEB-0435             
1 51632U 22012L   25273.04558805 -.00000382  00000+0 -11308-2 0  9997
2 51632  87.8736  88.1557 0001230  94.4596 265.6672 13.10371758175244
ONEWEB-0436             
1 51633U 22012M   25272.90303549  .00000058  00000+0  11702-3 0  9992
2 51633  87.9074  57.5987 0001545 102.4473 257.6831 13.17647259179400
ONEWEB-0438             
1 51634U 22012N   25273.02900174  .00000392  00000+0  10874-2 0  9993
2 51634  87.8735  88.1597 0001721  84.1262 276.0061 13.10371350175279
