[{"OBJECT_NAME":"ONEWEB-0430","OBJECT_ID":"2021-132AJ","EPOCH":"2025-09-30T07:09:37.474560","MEAN_MOTION":13.18685629,"ECCENTRICITY":0.00018465,"INCLINATION":87.9215,"RA_OF_ASC_NODE":27.0634,"ARG_OF_PERICENTER":108.3094,"MEAN_ANOMALY":251.8239,"EPHEMERIS_TYPE":0,"CLASSIFICATION_TYPE":"U","NORAD_CAT_ID":50501,"ELEMENT_SET_NO":999,"REV_AT_EPOCH":18737,"BSTAR":0.00019182304,"MEAN_MOTION_DOT":8.9e-7,"MEAN_MOTION_DDOT":0},{"OBJECT_NAME":"ONEWEB-0432","OBJECT_ID":"2021-132AK","EPOCH":"2025-09-29T19:10:02.349984","MEAN_MOTION":13.18691541,"ECCENTRICITY":0.00026345,"INCLINATION":87.9208,"RA_OF_ASC_NODE":27.1388,"ARG_OF_PERICENTER":98.0323,"MEAN_ANOMALY":262.1108,"EPHEMERIS_TYPE":0,"CLASSIFICATION_TYPE":"U","NORAD_CAT_ID":50502,"ELEMENT_SET_NO":999,"REV_AT_EPOCH":18726,"BSTAR":0.00046997835,"MEAN_MOTION_DOT":1.98e-6,"MEAN_MOTION_DDOT":0},{"OBJECT_NAME":"ONEWEB-0440","OBJECT_ID":"2021-132AL","EPOCH":"2025-09-29T20:42:32.691168","MEAN_MOTION":13.18687165,"ECCENTRICITY":0.0001285,"INCLINATION":87.9219,"RA_OF_ASC_NODE":27.1394,"ARG_OF_PERICENTER":91.9041,"MEAN_ANOMALY":268.2239,"EPHEMERIS_TYPE":0,"CLASSIFICATION_TYPE":"U","NORAD_CAT_ID":50503,"ELEMENT_SET_NO":999,"REV_AT_EPOCH":18726,"BSTAR":0.00022357,"MEAN_MOTION_DOT":1.01e-6,"MEAN_MOTION_DDOT":0},{"OBJECT_NAME":"ONEWEB-0450","OBJECT_ID":"2021-132AM","EPOCH":"2025-09-30T02:01:00.546240","MEAN_MOTION":13.18689197,"ECCENTRICITY":0.00016005,"INCLINATION":87.9215,"RA_OF_ASC_NODE":27.1202,"ARG_OF_PERICENTER":110.5264,"MEAN_ANOMALY":249.6041,"EPHEMERIS_TYPE":0,"CLASSIFICATION_TYPE":"U","NORAD_CAT_ID":50504,"ELEMENT_SET_NO":999,"REV_AT_EPOCH":18732,"BSTAR":0.00022909996,"MEAN_MOTION_DOT":1.03e-6,"MEAN_MOTION_DDOT":0},{"OBJECT_NAME":"ONEWEB-0410","OBJECT_ID":"2022-012A","EPOCH":"2025-09-29T19:58:19.218432","MEAN_MOTION":13.17648666,"ECCENTRICITY":0.00027551,"INCLINATION":87.9077,"RA_OF_ASC_NODE":57.6187,"ARG_OF_PERICENTER":69.465,"MEAN_ANOMALY":290.6777,"EPHEMERIS_TYPE":0,"CLASSIFICATION_TYPE":"U","NORAD_CAT_ID":51622,"ELEMENT_SET_NO":999,"REV_AT_EPOCH":17941,"BSTAR":0.00019155966,"MEAN_MOTION_DOT":8.7e-7,"MEAN_MOTION_DDOT":0},{"OBJECT_NAME":"ONEWEB-0411","OBJECT_ID":"2022-012B","EPOCH":"2025-09-30T00:22:38.894016","MEAN_MOTION":13.10373899,"ECCENTRICITY":0.00018444,"INCLINATION":87.874,"RA_OF_ASC_NODE":88.1432,"ARG_OF_PERICENTER":106.6701,"MEAN_ANOMALY":253.4629,"EPHEMERIS_TYPE":0,"CLASSIFICATION_TYPE":"U","NORAD_CAT_ID":51623,"ELEMENT_SET_NO":999,"REV_AT_EPOCH":17521,"BSTAR":0.0022569087,"MEAN_MOTION_DOT":8.01e-6,"MEAN_MOTION_DDOT":0},{"OBJECT_NAME":"ONEWEB-0415","OBJECT_ID":"2022-012C","EPOCH":"2025-09-30T00:17:51.856800","MEAN_MOTION":13.10374417,"ECCENTRICITY":0.00017591,"INCLINATION":87.8737,"RA_OF_ASC_NODE":88.1459,"ARG_OF_PERICENTER":98.3241,"MEAN_ANOMALY":261.8085,"EPHEMERIS_TYPE":0,"CLASSIFICATION_TYPE":"U","NORAD_CAT_ID":51624,"ELEMENT_SET_NO":999,"REV_AT_EPOCH":17521,"BSTAR":0.0020577746,"MEAN_MOTION_DOT":7.31e-6,"MEAN_MOTION_DDOT":0},{"OBJECT_NAME":"ONEWEB-0416","OBJECT_ID":"2022-012D","EPOCH":"2025-09-30T00:34:35.632992","MEAN_MOTION":13.10372325,"ECCENTRICITY":0.00016939,"INCLINATION":87.8737,"RA_OF_ASC_NODE":88.1636,"ARG_OF_PERICENTER":87.9829,"MEAN_ANOMALY":272.1493,"EPHEMERIS_TYPE":0,"CLASSIFICATION_TYPE":"U","NORAD_CAT_ID":51625,"ELEMENT_SET_NO":999,"REV_AT_EPOCH":17525,"BSTAR":0.0016338858,"MEAN_MOTION_DOT":5.83e-6,"MEAN_MOTION_DDOT":0},{"OBJECT_NAME":"ONEWEB-0422","OBJECT_ID":"2022-012E","EPOCH":"2025-09-29T20:12:53.239968","MEAN_MOTION":13.17648919,"ECCENTRICITY":9.75e-5,"INCLINATION":87.9077,"RA_OF_ASC_NODE":57.622,"ARG_OF_PERICENTER":108.7237,"MEAN_ANOMALY":251.4001,"EPHEMERIS_TYPE":0,"CLASSIFICATION_TYPE":"U","NORAD_CAT_ID":51626,"ELEMENT_SET_NO":999,"REV_AT_EPOCH":17952,"BSTAR":0.00038552,"MEAN_MOTION_DOT":1.63e-6,"MEAN_MOTION_DDOT":0},{"OBJECT_NAME":"ONEWEB-0423","OBJECT_ID":"2022-012F","EPOCH":"2025-09-29T21:52:31.052064","MEAN_MOTION":13.17648099,"ECCENTRICITY":0.0001569,"INCLINATION":87.9077,"RA_OF_ASC_NODE":57.6175,"ARG_OF_PERICENTER":93.4319,"MEAN_ANOMALY":266.6992,"EPHEMERIS_TYPE":0,"CLASSIFICATION_TYPE":"U","NORAD_CAT_ID":51627,"ELEMENT_SET_NO":999,"REV_AT_EPOCH":17942,"BSTAR":0.00020607,"MEAN_MOTION_DOT":9.3e-7,"MEAN_MOTION_DDOT":0},{"OBJECT_NAME":"ONEWEB-0425","OBJECT_ID":"2022-012G","EPOCH":"2025-09-30T00:48:55.751040","MEAN_MOTION":13.10370617,"ECCENTRICITY":0.00017899,"INCLINATION":87.8735,"RA_OF_ASC_NODE":88.1309,"ARG_OF_PERICENTER":78.9807,"MEAN_ANOMALY":281.1522,"EPHEMERIS_TYPE":0,"CLASSIFICATION_TYPE":"U","NORAD_CAT_ID":51628,"ELEMENT_SET_NO":999,"REV_AT_EPOCH":17525,"BSTAR":0.00034416995,"MEAN_MOTION_DOT":1.33e-6,"MEAN_MOTION_DDOT":0},{"OBJECT_NAME":"ONEWEB-0428","OBJECT_ID":"2022-012H","EPOCH":"2025-09-30T00:20:15.333504","MEAN_MOTION":13.10374171,"ECCENTRICITY":0.00014731,"INCLINATION":87.8738,"RA_OF_ASC_NODE":88.1564,"ARG_OF_PERICENTER":91.3689,"MEAN_ANOMALY":268.7607,"EPHEMERIS_TYPE":0,"CLASSIFICATION_TYPE":"U","NORAD_CAT_ID":51629,"ELEMENT_SET_NO":999,"REV_AT_EPOCH":17521,"BSTAR":0.0020685816,"MEAN_MOTION_DOT":7.35e-6,"MEAN_MOTION_DDOT":0},{"OBJECT_NAME":"ONEWEB-0431","OBJECT_ID":"2022-012J","EPOCH":"2025-09-30T05:06:51.818400","MEAN_MOTION":13.10372874,"ECCENTRICITY":0.00017474,"INCLINATION":87.8749,"RA_OF_ASC_NODE":88.0905,"ARG_OF_PERICENTER":112.3006,"MEAN_ANOMALY":247.8307,"EPHEMERIS_TYPE":0,"CLASSIFICATION_TYPE":"U","NORAD_CAT_ID":51630,"ELEMENT_SET_NO":999,"REV_AT_EPOCH":17529,"BSTAR":-0.0016860769,"MEAN_MOTION_DOT":-5.76e-6,"MEAN_MOTION_DDOT":0},{"OBJECT_NAME":"ONEWEB-0434","OBJECT_ID":"2022-012K","EPOCH":"2025-09-29T21:13:47.786304","MEAN_MOTION":13.10370405,"ECCENTRICITY":0.0001919,"INCLINATION":87.8738,"RA_OF_ASC_NODE":88.1966,"ARG_OF_PERICENTER":66.8792,"MEAN_ANOMALY":293.2537,"EPHEMERIS_TYPE":0,"CLASSIFICATION_TYPE":"U","NORAD_CAT_ID":51631,"ELEMENT_SET_NO":999,"REV_AT_EPOCH":17523,"BSTAR":8.9817e-5,"MEAN_MOTION_DOT":4.4e-7,"MEAN_MOTION_DDOT":0},{"OBJECT_NAME":"ONEWEB-0435","OBJECT_ID":"2022-012L","EPOCH":"2025-09-30T01:05:38.807520","MEAN_MOTION":13.10371758,"ECCENTRICITY":0.00012309,"INCLINATION":87.8736,"RA_OF_ASC_NODE":88.1557,"ARG_OF_PERICENTER":94.4596,"MEAN_ANOMALY":265.6672,"EPHEMERIS_TYPE":0,"CLASSIFICATION_TYPE":"U","NORAD_CAT_ID":51632,"ELEMENT_SET_NO":999,"REV_AT_EPOCH":17524,"BSTAR":-0.0011307577,"MEAN_MOTION_DOT":-3.82e-6,"MEAN_MOTION_DDOT":0},{"OBJECT_NAME":"ONEWEB-0436","OBJECT_ID":"2022-012M","EPOCH":"2025-09-29T21:40:22.266336","MEAN_MOTION":13.17647259,"ECCENTRICITY":0.0001545,"INCLINATION":87.9074,"RA_OF_ASC_NODE":57.5987,"ARG_OF_PERICENTER":102.4473,"MEAN_ANOMALY":257.6831,"EPHEMERIS_TYPE":0,"CLASSIFICATION_TYPE":"U","NORAD_CAT_ID":51633,"ELEMENT_SET_NO":999,"REV_AT_EPOCH":17940,"BSTAR":0.00011702,"MEAN_MOTION_DOT":5.8e-7,"MEAN_MOTION_DDOT":0},{"OBJECT_NAME":"ONEWEB-0438","OBJECT_ID":"2022-012N","EPOCH":"2025-09-30T00:41:45.750336","MEAN_MOTION":13.1037135,"ECCENTRICITY":0.00017212,"INCLINATION":87.8735,"RA_OF_ASC_NODE":88.1597,"ARG_OF_PERICENTER":84.1262,"MEAN_ANOMALY":276.0061,"EPHEMERIS_TYPE":0,"CLASSIFICATION_TYPE":"U","NORAD_CAT_ID":51634,"ELEMENT_SET_NO":999,"REV_AT_EPOCH":17527,"BSTAR":0.0010873673,"MEAN_MOTION_DOT":3.92e-6,"MEAN_MOTION_DDOT":0}]
